NORAD_CAT_ID,OBJECT_NAME,OBJECT_TYPE,EPOCH,MEAN_MOTION,ECCENTRICITY,INCLINATION,RA_OF_ASC_NODE,ARG_OF_PERICENTER,MEAN_ANOMALY,BSTAR,MEAN_MOTION_DOT,MEAN_MOTION_DDOT,TLE_LINE0,TLE_LINE1,TLE_LINE2,SEMIMAJOR_AXIS,PERIOD,APOGEE,PERIGEE,DECAYED
55269.0,STARLINK-5277,PAYLOAD,2023-04-04 16:00:00,14.99166928,0.000326,70.0007,222.5728,272.0749,11.4042,-0.0056339,-0.0006813,0.0,0 STARLINK-5277,1 55269U 23010A   23094.66667824 -.00068130  00000-0 -56339-2 0  9994,2 55269  70.0007 222.5728 0003260 272.0749  11.4042 14.99166928  1304,6947.606,96.053,571.736,567.206,0.0
55269.0,STARLINK-5277,PAYLOAD,2023-04-04 22:00:00,14.99125529,0.0003241,70.0005,221.9415,270.7513,281.5795,-0.0012228,-0.00014956,0.0,0 STARLINK-5277,1 55269U 23010A   23094.91667824 -.00014956  00000-0 -12228-2 0  9998,2 55269  70.0005 221.9415 0003241 270.7513 281.5795 14.99125529  1308,6947.734,96.056,571.851,567.347,0.0
55269.0,STARLINK-5277,PAYLOAD,2023-04-05 06:00:00,14.99091833,0.0003297,70.0008,221.1001,264.9973,285.7647,0.0060245,0.00074002,0.0,0 STARLINK-5277,1 55269U 23010A   23095.25001157  .00074002  00000-0  60245-2 0  9995,2 55269  70.0008 221.1001 0003297 264.9973 285.7647 14.99091833 12270,6947.838,96.058,571.994,567.412,0.0
55269.0,STARLINK-5277,PAYLOAD,2023-04-05 14:00:01,14.99149484,0.0003332,70.0011,220.2586,267.9089,281.2844,-0.0028642,-0.00034831,0.0,0 STARLINK-5277,1 55269U 23010A   23095.58334491 -.00034831  00000-0 -28642-2 0  9994,2 55269  70.0011 220.2586 0003332 267.9089 281.2844 14.99149484  1301,6947.66,96.054,571.84,567.21,0.0
55269.0,STARLINK-5277,PAYLOAD,2023-04-05 22:00:00,14.99142792,0.0003329,70.001,219.4169,269.5462,278.097,-0.0018105,-0.00022088,0.0,0 STARLINK-5277,1 55269U 23010A   23095.91667824 -.00022088  00000-0 -18105-2 0  9994,2 55269  70.0010 219.4169 0003329 269.5462 278.0970 14.99142792  1305,6947.681,96.055,571.858,567.233,0.0
55269.0,STARLINK-5277,PAYLOAD,2023-04-06 00:00:00,14.99143933,0.0003339,70.0011,219.2066,268.1224,9.1327,-0.0023938,-0.00029145,0.0,0 STARLINK-5277,1 55269U 23010A   23096.00001157 -.00029145  00000-0 -23938-2 0  9997,2 55269  70.0011 219.2066 0003339 268.1224   9.1327 14.99143933 12389,6947.677,96.055,571.862,567.222,0.0
55269.0,STARLINK-5277,PAYLOAD,2023-04-06 14:00:01,14.99159674,0.0003408,70.0014,217.7341,268.5511,276.0491,-0.0028084,-0.00034167,0.0,0 STARLINK-5277,1 55269U 23010A   23096.58335648 -.00034167  00000-0 -28084-2 0  9992,2 55269  70.0014 217.7341 0003408 268.5511 276.0491 14.99159674 12477,6947.628,96.054,571.861,567.126,0.0
55269.0,STARLINK-5277,PAYLOAD,2023-04-06 22:00:00,14.9915363,0.0003379,70.0012,216.8926,271.8568,271.1458,-0.0026847,-0.00032668,0.0,0 STARLINK-5277,1 55269U 23010A   23096.91667824 -.00032668  00000-0 -26847-2 0  9992,2 55269  70.0012 216.8926 0003379 271.8568 271.1458 14.99153630  1305,6947.647,96.054,571.86,567.164,0.0
55269.0,STARLINK-5277,PAYLOAD,2023-04-07 00:00:00,14.99147968,0.0003379,70.0014,216.6822,270.7663,1.8524,-0.0022551,-0.00027471,0.0,0 STARLINK-5277,1 55269U 23010A   23097.00001157 -.00027471  00000-0 -22551-2 0  9998,2 55269  70.0014 216.6822 0003379 270.7663   1.8524 14.99147968 12530,6947.665,96.055,571.877,567.182,0.0
55269.0,STARLINK-5277,PAYLOAD,2023-04-07 11:35:56,14.99136875,0.0003038,69.9992,215.4625,265.7269,94.3543,0.00013534,1.556e-05,0.0,0 STARLINK-5277,1 55269U 23010A   23097.48328887  .00001556  00000-0  13534-3 0  9998,2 55269  69.9992 215.4625 0003038 265.7269  94.3543 14.99136875 12609,6947.699,96.055,571.675,567.453,0.0
55269.0,STARLINK-5277,PAYLOAD,2023-04-08 11:37:10,14.99136125,0.0002776,69.9997,212.9357,271.3971,88.687,-3.7886e-08,-9.4e-07,0.0,0 STARLINK-5277,1 55269U 23010A   23098.48415444 -.00000094  00000-0 -37886-7 0  9993,2 55269  69.9997 212.9357 0002776 271.3971  88.6870 14.99136125 12752,6947.701,96.055,571.495,567.637,0.0
55269.0,STARLINK-5277,PAYLOAD,2023-04-08 19:37:35,14.99151112,0.0002543,70.0002,212.0942,255.5202,104.5675,-0.00023317,-2.934e-05,0.0,0 STARLINK-5277,1 55269U 23010A   23098.81776894 -.00002934  00000-0 -23317-3 0  9994,2 55269  70.0002 212.0942 0002543 255.5202 104.5675 14.99151112 12806,6947.655,96.054,571.287,567.753,0.0
55269.0,STARLINK-5277,PAYLOAD,2023-04-09 06:50:10,14.99138872,0.0002751,70.0001,210.9149,259.6638,100.4212,4.3283e-05,4.34e-06,0.0,0 STARLINK-5277,1 55269U 23010A   23099.28483858  .00000434  00000-0  43283-4 0  9997,2 55269  70.0001 210.9149 0002751 259.6638 100.4212 14.99138872 12877,6947.693,96.055,571.469,567.646,0.0
55269.0,STARLINK-5277,PAYLOAD,2023-04-09 10:02:19,14.9914394,0.0002786,70.0001,210.5786,261.6641,98.4202,3.9473e-05,3.87e-06,0.0,0 STARLINK-5277,1 55269U 23010A   23099.41828343  .00000387  00000-0  39473-4 0  9997,2 55269  70.0001 210.5786 0002786 261.6641  98.4202 14.99143940 13491,6947.677,96.055,571.478,567.606,0.0
55269.0,STARLINK-5277,PAYLOAD,2023-04-09 16:26:39,14.99144577,0.0002861,70.0003,209.905,268.0291,92.0541,5.2309e-05,5.44e-06,0.0,0 STARLINK-5277,1 55269U 23010A   23099.68517842  .00000544  00000-0  52309-4 0  9993,2 55269  70.0003 209.9050 0002861 268.0291  92.0541 14.99144577 13533,6947.675,96.055,571.528,567.552,0.0
55269.0,STARLINK-5277,PAYLOAD,2023-04-10 06:51:24,14.99129831,0.0002944,70.0001,208.3888,267.6227,92.4595,0.00024859,2.936e-05,0.0,0 STARLINK-5277,1 55269U 23010A   23100.28569778  .00002936  00000-0  24859-3 0  9992,2 55269  70.0001 208.3888 0002944 267.6227  92.4595 14.99129831 13022,6947.721,96.056,571.631,567.54,0.0
55269.0,STARLINK-5277,PAYLOAD,2023-04-10 08:27:29,14.99133947,0.0003113,70.0001,208.2203,267.2966,92.7837,0.00016869,1.962e-05,0.0,0 STARLINK-5277,1 55269U 23010A   23100.35242057  .00001962  00000-0  16869-3 0  9998,2 55269  70.0001 208.2203 0003113 267.2966  92.7837 14.99133947 13639,6947.708,96.055,571.736,567.41,0.0
55269.0,STARLINK-5277,PAYLOAD,2023-04-11 00:28:18,14.99144444,0.0003008,69.9997,206.536,270.7758,89.3057,4.4934e-05,4.54e-06,0.0,0 STARLINK-5277,1 55269U 23010A   23101.01965638  .00000454  00000-0  44934-4 0  9999,2 55269  69.9997 206.5360 0003008 270.7758  89.3057 14.99144444 13131,6947.675,96.055,571.63,567.451,0.0
55269.0,STARLINK-5277,PAYLOAD,2023-04-11 11:40:52,14.99164105,0.0002812,70.0001,205.358,276.7363,83.3476,-0.00036419,-4.531e-05,0.0,0 STARLINK-5277,1 55269U 23010A   23101.48671965 -.00004531  00000-0 -36419-3 0  9997,2 55269  70.0001 205.3580 0002812 276.7363  83.3476 14.99164105 13204,6947.615,96.054,571.433,567.526,0.0
55269.0,STARLINK-5277,PAYLOAD,2023-04-11 18:05:12,14.99137237,0.0002752,70.0,204.6832,270.9798,89.1046,0.00021145,2.484e-05,0.0,0 STARLINK-5277,1 55269U 23010A   23101.75362030  .00002484  00000-0  21145-3 0  9990,2 55269  70.0000 204.6832 0002752 270.9798  89.1046 14.99137237 13849,6947.698,96.055,571.475,567.651,0.0
55269.0,STARLINK-5277,PAYLOAD,2023-04-12 13:18:12,14.99141773,0.0003022,69.9997,202.6612,270.9531,89.1282,2.1233e-05,1.65e-06,0.0,0 STARLINK-5277,1 55269U 23010A   23102.55430780  .00000165  00000-0  21233-4 0  9990,2 55269  69.9997 202.6612 0003022 270.9531  89.1282 14.99141773 13966,6947.684,96.055,571.648,567.449,0.0
55269.0,STARLINK-5277,PAYLOAD,2023-04-13 10:07:16,14.99121877,0.0003666,69.9992,200.4714,266.9537,93.1203,0.00035432,4.224e-05,0.0,0 STARLINK-5277,1 55269U 23010A   23103.42172246  .00004224  00000-0  35432-3 0  9992,2 55269  69.9992 200.4714 0003666 266.9537  93.1203 14.99121877 14091,6947.745,96.056,572.157,567.063,0.0
55269.0,STARLINK-5277,PAYLOAD,2023-04-13 18:07:40,14.99145085,0.0003057,69.9997,199.6297,270.7139,89.3671,3.911e-05,3.83e-06,0.0,0 STARLINK-5277,1 55269U 23010A   23103.75533552  .00000383  00000-0  39110-4 0  9999,2 55269  69.9997 199.6297 0003057 270.7139  89.3671 14.99145085 13548,6947.673,96.055,571.662,567.415,0.0
55269.0,STARLINK-5277,PAYLOAD,2023-04-14 11:44:35,14.99146464,0.0002876,69.9999,197.7769,274.493,85.5901,-0.00020681,-2.613e-05,0.0,0 STARLINK-5277,1 55269U 23010A   23104.48930550 -.00002613  00000-0 -20681-3 0  9991,2 55269  69.9999 197.7769 0002876 274.4930  85.5901 14.99146464 14256,6947.669,96.055,571.532,567.536,0.0
55269.0,STARLINK-5277,PAYLOAD,2023-04-15 13:21:55,14.99136981,0.0002966,69.9998,195.0822,266.9545,93.1275,-1.4508e-05,-2.7e-06,0.0,0 STARLINK-5277,1 55269U 23010A   23105.55689262 -.00000270  00000-0 -14508-4 0  9990,2 55269  69.9998 195.0822 0002966 266.9545  93.1275 14.99136981 13817,6947.698,96.055,571.624,567.503,0.0
55269.0,STARLINK-5277,PAYLOAD,2023-04-15 14:58:00,14.99138619,0.0002932,69.9999,194.9138,266.7072,93.3752,7.3062e-07,-8.5e-07,0.0,0 STARLINK-5277,1 55269U 23010A   23105.62361516 -.00000085  00000-0  73062-6 0  9992,2 55269  69.9999 194.9138 0002932 266.7072  93.3752 14.99138619 14422,6947.693,96.055,571.595,567.521,0.0
55269.0,STARLINK-5277,PAYLOAD,2023-04-15 22:58:24,14.99144699,0.0003182,70.0002,194.0728,268.0575,92.022,-2.8813e-05,-4.45e-06,0.0,0 STARLINK-5277,1 55269U 23010A   23105.95723107 -.00000445  00000-0 -28813-4 0  9999,2 55269  70.0002 194.0728 0003182 268.0575  92.0220 14.99144699 13876,6947.675,96.055,571.75,567.329,0.0
55269.0,STARLINK-5277,PAYLOAD,2023-04-16 13:23:09,14.99141472,0.0003109,70.0,192.5567,268.4439,91.6364,0.00015371,1.78e-05,0.0,0 STARLINK-5277,1 55269U 23010A   23106.55774560  .00001780  00000-0  15371-3 0  9990,2 55269  70.0000 192.5567 0003109 268.4439  91.6364 14.99141472 14567,6947.685,96.055,571.71,567.39,0.0
55269.0,STARLINK-5277,PAYLOAD,2023-04-16 14:59:14,14.99145247,0.0002931,70.0,192.3879,266.7618,93.3206,0.00012338,1.41e-05,0.0,0 STARLINK-5277,1 55269U 23010A   23106.62446773  .00001410  00000-0  12338-3 0  9990,2 55269  70.0000 192.3879 0002931 266.7618  93.3206 14.99145247 14572,6947.673,96.055,571.574,567.502,0.0
55269.0,STARLINK-5277,PAYLOAD,2023-04-17 05:23:59,14.99134782,0.0002924,70.0002,190.8731,264.2021,95.8805,4.2805e-05,4.28e-06,0.0,0 STARLINK-5277,1 55269U 23010A   23107.22499231  .00000428  00000-0  42805-4 0  9995,2 55269  70.0002 190.8731 0002924 264.2021  95.8805 14.99134782 14065,6947.705,96.055,571.602,567.539,0.0
